NORAD_CAT_ID,OBJECT_NAME,OBJECT_TYPE,EPOCH,MEAN_MOTION,ECCENTRICITY,INCLINATION,RA_OF_ASC_NODE,ARG_OF_PERICENTER,MEAN_ANOMALY,BSTAR,MEAN_MOTION_DOT,MEAN_MOTION_DDOT,TLE_LINE0,TLE_LINE1,TLE_LINE2,SEMIMAJOR_AXIS,PERIOD,APOGEE,PERIGEE,DECAYED
51109.0,STARLINK-3358,PAYLOAD,2023-09-26 10:22:32,15.08828235,0.0001601,53.2178,348.0859,91.0139,269.1036,0.00099549,0.00015586,0.0,0 STARLINK-3358,1 51109U 22005F   23269.43231960  .00015586  00000-0  99549-3 0  9999,2 51109  53.2178 348.0859 0001601  91.0139 269.1036 15.08828235 94835,6917.916,95.438,540.889,538.674,0.0
51109.0,STARLINK-3358,PAYLOAD,2023-09-26 11:57:55,15.0883318,0.0001562,53.2179,347.7887,89.8191,270.298,0.0014641,0.00023086,0.0,0 STARLINK-3358,1 51109U 22005F   23269.49855976  .00023086  00000-0  14641-2 0  9997,2 51109  53.2179 347.7887 0001562  89.8191 270.2980 15.08833180 93501,6917.901,95.438,540.847,538.686,0.0
51109.0,STARLINK-3358,PAYLOAD,2023-09-27 08:37:56,15.08858485,0.0001652,53.218,343.9233,90.5666,269.5516,0.0010216,0.00016016,0.0,0 STARLINK-3358,1 51109U 22005F   23270.35967708  .00016016  00000-0  10216-2 0  9990,2 51109  53.2180 343.9233 0001652  90.5666 269.5516 15.08858485 94975,6917.824,95.436,540.832,538.546,0.0
51109.0,STARLINK-3358,PAYLOAD,2023-09-27 11:48:42,15.08864015,0.0001574,53.218,343.3288,91.7587,268.3586,0.0010959,0.00017208,0.0,0 STARLINK-3358,1 51109U 22005F   23270.49215470  .00017208  00000-0  10959-2 0  9995,2 51109  53.2180 343.3288 0001574  91.7587 268.3586 15.08864015 93651,6917.807,95.436,540.761,538.583,0.0
51109.0,STARLINK-3358,PAYLOAD,2023-09-28 11:39:29,15.0883623,0.0001574,53.2176,338.8667,87.1505,272.9667,-5.5988e-05,-1.179e-05,0.0,0 STARLINK-3358,1 51109U 22005F   23271.48575945 -.00001179  00000-0 -55988-4 0  9996,2 51109  53.2176 338.8667 0001574  87.1505 272.9667 15.08836230 95140,6917.892,95.438,540.846,538.668,0.0
51109.0,STARLINK-3358,PAYLOAD,2023-09-29 11:30:16,15.08846826,0.0001566,53.2174,334.4083,88.901,271.2161,0.00016652,2.364e-05,0.0,0 STARLINK-3358,1 51109U 22005F   23272.47935855  .00002364  00000-0  16652-3 0  9995,2 51109  53.2174 334.4083 0001566  88.9010 271.2161 15.08846826 93953,6917.86,95.437,540.808,538.641,0.0
51109.0,STARLINK-3358,PAYLOAD,2023-10-01 03:14:54,15.08848089,0.0001849,53.2165,326.9751,89.9143,270.2061,1.0957e-05,-1.14e-06,0.0,0 STARLINK-3358,1 51109U 22005F   23274.13535409 -.00000114  00000-0  10957-4 0  9996,2 51109  53.2165 326.9751 0001849  89.9143 270.2061 15.08848089 95541,6917.856,95.437,541.0,538.442,0.0
51109.0,STARLINK-3358,PAYLOAD,2023-10-01 11:11:50,15.08847503,0.0001693,53.2165,325.487,90.4711,269.6475,8.3408e-05,1.04e-05,0.0,0 STARLINK-3358,1 51109U 22005F   23274.46655316  .00001040  00000-0  83408-4 0  9991,2 51109  53.2165 325.4870 0001693  90.4711 269.6475 15.08847503 94250,6917.857,95.437,540.894,538.551,0.0
51109.0,STARLINK-3358,PAYLOAD,2023-10-01 20:44:09,15.08836641,0.000173,53.2176,323.7007,82.7649,277.3539,-8.06e-05,-1.57e-05,0.0,0 STARLINK-3358,1 51109U 22005F   23274.86399815 -.00001570  00000-0 -80600-4 0  9995,2 51109  53.2176 323.7007 0001730  82.7649 277.3539 15.08836641 94316,6917.891,95.438,540.952,538.559,0.0
51109.0,STARLINK-3358,PAYLOAD,2023-10-02 20:34:57,15.08829055,0.0001619,53.2159,319.2375,92.4997,267.6181,1.6633e-05,-2.3e-07,0.0,0 STARLINK-3358,1 51109U 22005F   23275.85760872 -.00000023  00000-0  16633-4 0  9996,2 51109  53.2159 319.2375 0001619  92.4997 267.6181 15.08829055 95806,6917.914,95.438,540.899,538.659,0.0
51109.0,STARLINK-3358,PAYLOAD,2023-10-03 09:18:02,15.08833217,0.0001628,53.216,316.8612,88.3494,271.7684,6.0864e-05,6.81e-06,0.0,0 STARLINK-3358,1 51109U 22005F   23276.38753290  .00000681  00000-0  60864-4 0  9995,2 51109  53.2160 316.8612 0001628  88.3494 271.7684 15.08833217 94540,6917.901,95.438,540.892,538.64,0.0
51109.0,STARLINK-3358,PAYLOAD,2023-10-04 02:47:17,15.08838563,0.0001744,53.2157,313.5901,87.2771,272.842,0.00059082,9.127e-05,0.0,0 STARLINK-3358,1 51109U 22005F   23277.11617563  .00009127  00000-0  59082-3 0  9992,2 51109  53.2157 313.5901 0001744  87.2771 272.8420 15.08838563 95995,6917.885,95.438,540.956,538.543,0.0
51109.0,STARLINK-3358,PAYLOAD,2023-10-04 09:08:49,15.0886174,0.0001715,53.2167,312.402,83.242,276.8767,0.00061593,9.534e-05,0.0,0 STARLINK-3358,1 51109U 22005F   23277.38112651  .00009534  00000-0  61593-3 0  9991,2 51109  53.2167 312.4020 0001715  83.2420 276.8767 15.08861740 96038,6917.814,95.436,540.865,538.493,0.0
51109.0,STARLINK-3358,PAYLOAD,2023-10-05 01:02:40,15.08857674,0.0001742,53.2171,309.4305,83.7759,276.3431,0.00034994,5.288e-05,0.0,0 STARLINK-3358,1 51109U 22005F   23278.04352418  .00005288  00000-0  34994-3 0  9999,2 51109  53.2171 309.4305 0001742  83.7759 276.3431 15.08857674 96130,6917.826,95.436,540.896,538.486,0.0
51109.0,STARLINK-3358,PAYLOAD,2023-10-05 08:59:36,15.08848804,0.0001736,53.2177,307.9426,87.5435,272.5756,0.00010629,1.404e-05,0.0,0 STARLINK-3358,1 51109U 22005F   23278.37472539  .00001404  00000-0  10629-3 0  9997,2 51109  53.2177 307.9426 0001736  87.5435 272.5756 15.08848804 96187,6917.853,95.437,540.919,538.518,0.0
51109.0,STARLINK-3358,PAYLOAD,2023-10-05 12:10:22,15.08851621,0.0001617,53.2169,307.3466,86.7167,273.401,0.00018929,2.727e-05,0.0,0 STARLINK-3358,1 51109U 22005F   23278.50720368  .00002727  00000-0  18929-3 0  9998,2 51109  53.2169 307.3466 0001617  86.7167 273.4010 15.08851621 94864,6917.845,95.437,540.828,538.591,0.0
51109.0,STARLINK-3358,PAYLOAD,2023-10-05 18:31:55,15.08842724,0.0001545,53.2146,306.1555,83.4264,276.6904,3.0016e-05,1.9e-06,0.0,0 STARLINK-3358,1 51109U 22005F   23278.77216684  .00000190  00000-0  30016-4 0  9992,2 51109  53.2146 306.1555 0001545  83.4264 276.6904 15.08842724 94903,6917.872,95.437,540.806,538.668,0.0
51109.0,STARLINK-3358,PAYLOAD,2023-10-06 00:53:27,15.08841082,0.0001593,53.2164,304.968,90.5645,269.553,-0.00017442,-3.063e-05,0.0,0 STARLINK-3358,1 51109U 22005F   23279.03712641 -.00003063  00000-0 -17442-3 0  9997,2 51109  53.2164 304.9680 0001593  90.5645 269.5530 15.08841082 96288,6917.877,95.437,540.844,538.64,0.0
51109.0,STARLINK-3358,PAYLOAD,2023-10-06 08:50:23,15.08846277,0.000156,53.2162,303.482,89.7511,270.366,-4.679e-05,-1.033e-05,0.0,0 STARLINK-3358,1 51109U 22005F   23279.36832341 -.00001033  00000-0 -46790-4 0  9997,2 51109  53.2162 303.4820 0001560  89.7511 270.3660 15.08846277 94993,6917.861,95.437,540.805,538.647,0.0
51109.0,STARLINK-3358,PAYLOAD,2023-10-06 18:22:42,15.08844248,0.0001556,53.2165,301.698,93.1612,266.9558,6.8575e-05,8.04e-06,0.0,0 STARLINK-3358,1 51109U 22005F   23279.76576468  .00000804  00000-0  68575-4 0  9994,2 51109  53.2165 301.6980 0001556  93.1612 266.9558 15.08844248 95050,6917.867,95.437,540.809,538.656,0.0
51109.0,STARLINK-3358,PAYLOAD,2023-10-07 02:19:38,15.08837326,0.0001613,53.2171,300.2104,92.1344,267.9833,-1.045e-06,-3.05e-06,0.0,0 STARLINK-3358,1 51109U 22005F   23280.09696892 -.00000305  00000-0 -10450-5 0  9994,2 51109  53.2171 300.2104 0001613  92.1344 267.9833 15.08837326 96445,6917.889,95.438,540.869,538.638,0.0
51109.0,STARLINK-3358,PAYLOAD,2023-10-07 07:05:47,15.08838793,0.0001644,53.2172,299.3194,92.6919,267.4261,8.0955e-05,1.001e-05,0.0,0 STARLINK-3358,1 51109U 22005F   23280.29568830  .00001001  00000-0  80955-4 0  9994,2 51109  53.2172 299.3194 0001644  92.6919 267.4261 15.08838793 95134,6917.884,95.438,540.886,538.612,0.0
51109.0,STARLINK-3358,PAYLOAD,2023-10-07 18:13:29,15.08840298,0.000168,53.2171,297.2378,93.7762,266.3422,4.8605e-05,4.86e-06,0.0,0 STARLINK-3358,1 51109U 22005F   23280.75936819  .00000486  00000-0  48605-4 0  9993,2 51109  53.2171 297.2378 0001680  93.7762 266.3422 15.08840298 95200,6917.879,95.438,540.907,538.582,0.0
51109.0,STARLINK-3358,PAYLOAD,2023-10-08 10:07:20,15.08845747,0.0001681,53.2166,294.2629,92.2241,267.8944,0.00015916,2.246e-05,0.0,0 STARLINK-3358,1 51109U 22005F   23281.42176704  .00002246  00000-0  15916-3 0  9991,2 51109  53.2166 294.2629 0001681  92.2241 267.8944 15.08845747 96645,6917.863,95.437,540.891,538.565,0.0
51109.0,STARLINK-3358,PAYLOAD,2023-10-08 18:04:16,15.08842258,0.0001699,53.2168,292.775,85.4552,274.6634,9.9337e-05,1.293e-05,0.0,0 STARLINK-3358,1 51109U 22005F   23281.75296877  .00001293  00000-0  99337-4 0  9992,2 51109  53.2168 292.7750 0001699  85.4552 274.6634 15.08842258 95356,6917.873,95.437,540.914,538.563,0.0
51109.0,STARLINK-3358,PAYLOAD,2023-10-09 00:25:49,15.08836697,0.0001557,53.2162,291.5866,88.246,271.8711,7.3769e-05,8.86e-06,0.0,0 STARLINK-3358,1 51109U 22005F   23282.01793189  .00000886  00000-0  73769-4 0  9998,2 51109  53.2162 291.5866 0001557  88.2460 271.8711 15.08836697 96735,6917.89,95.438,540.833,538.678,0.0
51109.0,STARLINK-3358,PAYLOAD,2023-10-09 08:22:44,15.08845877,0.0001516,53.2157,290.0994,89.0716,271.0449,0.0001552,2.183e-05,0.0,0 STARLINK-3358,1 51109U 22005F   23282.34912734  .00002183  00000-0  15520-3 0  9995,2 51109  53.2157 290.0994 0001516  89.0716 271.0449 15.08845877 96788,6917.862,95.437,540.776,538.679,0.0
51109.0,STARLINK-3358,PAYLOAD,2023-10-09 17:55:03,15.08831551,0.0001174,53.2167,288.3161,100.9369,259.1755,-4.9376e-05,-1.073e-05,0.0,0 STARLINK-3358,1 51109U 22005F   23282.74657271 -.00001073  00000-0 -49376-4 0  9997,2 51109  53.2167 288.3161 0001174 100.9369 259.1755 15.08831551 96840,6917.906,95.438,540.583,538.959,0.0
51109.0,STARLINK-3358,PAYLOAD,2023-10-10 09:48:54,15.08854447,0.0001533,53.2149,285.3411,101.4662,258.6502,0.00047045,7.21e-05,0.0,0 STARLINK-3358,1 51109U 22005F   23283.40896555  .00007210  00000-0  47045-3 0  9998,2 51109  53.2149 285.3411 0001533 101.4662 258.6502 15.08854447 96940,6917.836,95.437,540.762,538.641,0.0
51109.0,STARLINK-3358,PAYLOAD,2023-10-10 17:45:50,15.08835965,0.0001766,53.2168,283.8536,95.3135,264.8058,6.8082e-05,7.95e-06,0.0,0 STARLINK-3358,1 51109U 22005F   23283.74017237  .00000795  00000-0  68082-4 0  9993,2 51109  53.2168 283.8536 0001766  95.3135 264.8058 15.08835965 96990,6917.893,95.438,540.979,538.536,0.0
